IRIDIUM 166             
1 43570U 18061B   25183.12683367  .00000012  00000+0 -28438-5 0  9993
2 43570  86.3979 202.9967 0002106  86.4558 273.6879 14.34217700363220
IRIDIUM 158             
1 43571U 18061C   25182.81604504 -.00000011  00000+0 -10834-4 0  9995
2 43571  86.3985 203.1363 0002326  87.4160 272.7302 14.34217147363142
IRIDIUM 165             
1 43572U 18061D   25182.77164837  .00000136  00000+0  41426-4 0  9998
2 43572  86.3978 203.1940 0002060  89.7524 270.3907 14.34218062363164
IRIDIUM 155             
1 43573U 18061E   25182.80336174  .00000121  00000+0  36049-4 0  9997
2 43573  86.3978 203.0680 0002382  83.6903 276.4564 14.34217787363132
IRIDIUM 154             
1 43574U 18061F   25183.13317662 -.00000027  00000+0 -16731-4 0  9999
2 43574  86.3987 203.0461 0002173  89.9594 270.1851 14.34217377363239
IRIDIUM 163             
1 43575U 18061G   25183.11414917  .00000006  00000+0 -50338-5 0  9997
2 43575  86.3984 202.9804 0002376  90.3090 269.8378 14.34217664363203
IRIDIUM 156             
1 43576U 18061H   25182.80970490  .00000118  00000+0  35080-4 0  9995
2 43576  86.3978 203.1147 0002233  81.9948 278.1501 14.34217440363157
IRIDIUM 164             
1 43577U 18061J   25183.13951873  .00000001  00000+0 -65478-5 0  9994
2 43577  86.3986 203.0116 0001947  92.2586 267.8833 14.34217593363248
